GLOBALSTAR M045         
1 25676U 99019A   25211.62679773 -.00000078  00000+0  13478-3 0  9993
2 25676  51.9945 181.4566 0000470 332.4082 205.9081 12.27064430198726
GLOBALSTAR M019         
1 25677U 99019B   25211.56731230 -.00000074  00000+0  17113-3 0  9990
2 25677  51.9903 315.0469 0001573  76.5070 297.1422 12.13875918190412
GLOBALSTAR M044         
1 25678U 99019C   25211.41820432 -.00000098  00000+0 -19657-3 0  9990
2 25678  51.9963 272.2319 0006369 126.4196 246.8130 11.90253971176479
GLOBALSTAR M042         
1 25679U 99019D   25211.59438622 -.00000095  00000+0 -30281-4 0  9990
2 25679  52.0018 288.4175 0002856  38.4527 107.5885 12.22084796190568
GLOBALSTAR M025         
1 25770U 99031A   25211.57577573 -.00000063  00000+0  14505-3 0  9997
2 25770  51.9830  58.7582 0001149 203.9915 194.8753 11.22562512486583
GLOBALSTAR M049         
1 25771U 99031B   25211.40224628 -.00000002  00000+0  22017-2 0  9999
2 25771  51.9876  96.0970 0003469  72.4514 287.6662 11.12117899122233
GLOBALSTAR M047         
1 25772U 99031C   25211.33173805 -.00000066  00000+0  10140-3 0  9997
2 25772  51.9835  89.1039 0016710 339.4218  20.5914 11.31929154475992
GLOBALSTAR M052         
1 25773U 99031D   25211.55002872 -.00000029  00000+0  12329-2 0  9996
2 25773  51.9825 203.8251 0002848 251.0201 266.7103 11.15060190483341
